CCSDS_OMM_VERS = 2.0
CREATION_DATE  = 
ORIGINATOR     = 

OBJECT_NAME    = STARLINK-37107
OBJECT_ID      = 2026-057A
CENTER_NAME    = EARTH
REF_FRAME      = TEME
TIME_SYSTEM    = UTC
MEAN_ELEMENT_THEORY = SGP/SGP4

EPOCH          = 2026-03-26T12:00:01.999296
MEAN_MOTION    = 16.05947120
ECCENTRICITY   = .0001144
INCLINATION    = 97.2829
RA_OF_ASC_NODE = 208.3959
ARG_OF_PERICENTER = 53.0996
MEAN_ANOMALY   = 21.9059

EPHEMERIS_TYPE = 0
CLASSIFICATION_TYPE = U
NORAD_CAT_ID   = 68294
ELEMENT_SET_NO = 999
REV_AT_EPOCH   = 186
BSTAR          = -.14444E-2
MEAN_MOTION_DOT = -.1034611E-1
MEAN_MOTION_DDOT = .37431E-3

CCSDS_OMM_VERS = 2.0
CREATION_DATE  = 
ORIGINATOR     = 

OBJECT_NAME    = STARLINK-37147
OBJECT_ID      = 2026-057B
CENTER_NAME    = EARTH
REF_FRAME      = TEME
TIME_SYSTEM    = UTC
MEAN_ELEMENT_THEORY = SGP/SGP4

EPOCH          = 2026-03-26T12:00:01.999296
MEAN_MOTION    = 16.06042195
ECCENTRICITY   = .0001093
INCLINATION    = 97.2827
RA_OF_ASC_NODE = 208.3963
ARG_OF_PERICENTER = 51.9736
MEAN_ANOMALY   = 24.5195

EPHEMERIS_TYPE = 0
CLASSIFICATION_TYPE = U
NORAD_CAT_ID   = 68295
ELEMENT_SET_NO = 999
REV_AT_EPOCH   = 185
BSTAR          = -.14405E-2
MEAN_MOTION_DOT = -.1037781E-1
MEAN_MOTION_DDOT = .37687E-3

CCSDS_OMM_VERS = 2.0
CREATION_DATE  = 
ORIGINATOR     = 

OBJECT_NAME    = STARLINK-37142
OBJECT_ID      = 2026-057C
CENTER_NAME    = EARTH
REF_FRAME      = TEME
TIME_SYSTEM    = UTC
MEAN_ELEMENT_THEORY = SGP/SGP4

EPOCH          = 2026-03-26T12:00:01.999296
MEAN_MOTION    = 16.06392022
ECCENTRICITY   = .0001135
INCLINATION    = 97.2826
RA_OF_ASC_NODE = 208.3982
ARG_OF_PERICENTER = 49.9326
MEAN_ANOMALY   = 31.0976

EPHEMERIS_TYPE = 0
CLASSIFICATION_TYPE = U
NORAD_CAT_ID   = 68296
ELEMENT_SET_NO = 999
REV_AT_EPOCH   = 174
BSTAR          = -.13989E-2
MEAN_MOTION_DOT = -.1029721E-1
MEAN_MOTION_DDOT = .37308E-3

CCSDS_OMM_VERS = 2.0
CREATION_DATE  = 
ORIGINATOR     = 

OBJECT_NAME    = STARLINK-37115
OBJECT_ID      = 2026-057D
CENTER_NAME    = EARTH
REF_FRAME      = TEME
TIME_SYSTEM    = UTC
MEAN_ELEMENT_THEORY = SGP/SGP4

EPOCH          = 2026-03-26T12:00:01.999296
MEAN_MOTION    = 16.06294534
ECCENTRICITY   = .0001199
INCLINATION    = 97.2824
RA_OF_ASC_NODE = 208.3970
ARG_OF_PERICENTER = 53.7691
MEAN_ANOMALY   = 25.8821

EPHEMERIS_TYPE = 0
CLASSIFICATION_TYPE = U
NORAD_CAT_ID   = 68297
ELEMENT_SET_NO = 999
REV_AT_EPOCH   = 174
BSTAR          = -.14313E-2
MEAN_MOTION_DOT = -.1047121E-1
MEAN_MOTION_DDOT = .38436E-3

CCSDS_OMM_VERS = 2.0
CREATION_DATE  = 
ORIGINATOR     = 

OBJECT_NAME    = STARLINK-36355
OBJECT_ID      = 2026-057E
CENTER_NAME    = EARTH
REF_FRAME      = TEME
TIME_SYSTEM    = UTC
MEAN_ELEMENT_THEORY = SGP/SGP4

EPOCH          = 2026-03-26T12:00:01.999296
MEAN_MOTION    = 16.06157670
ECCENTRICITY   = .0001153
INCLINATION    = 97.2826
RA_OF_ASC_NODE = 208.3966
ARG_OF_PERICENTER = 55.1281
MEAN_ANOMALY   = 22.7782

EPHEMERIS_TYPE = 0
CLASSIFICATION_TYPE = U
NORAD_CAT_ID   = 68298
ELEMENT_SET_NO = 999
REV_AT_EPOCH   = 201
BSTAR          = -.146E-2
MEAN_MOTION_DOT = -.1059114E-1
MEAN_MOTION_DDOT = .39188E-3

CCSDS_OMM_VERS = 2.0
CREATION_DATE  = 
ORIGINATOR     = 

OBJECT_NAME    = STARLINK-37118
OBJECT_ID      = 2026-057F
CENTER_NAME    = EARTH
REF_FRAME      = TEME
TIME_SYSTEM    = UTC
MEAN_ELEMENT_THEORY = SGP/SGP4

EPOCH          = 2026-03-26T12:00:01.999296
MEAN_MOTION    = 16.06650314
ECCENTRICITY   = .000121
INCLINATION    = 97.2823
RA_OF_ASC_NODE = 208.3994
ARG_OF_PERICENTER = 53.7629
MEAN_ANOMALY   = 30.4288

EPHEMERIS_TYPE = 0
CLASSIFICATION_TYPE = U
NORAD_CAT_ID   = 68299
ELEMENT_SET_NO = 999
REV_AT_EPOCH   = 185
BSTAR          = -.14033E-2
MEAN_MOTION_DOT = -.1049386E-1
MEAN_MOTION_DDOT = .38759E-3

CCSDS_OMM_VERS = 2.0
CREATION_DATE  = 
ORIGINATOR     = 

OBJECT_NAME    = STARLINK-36875
OBJECT_ID      = 2026-057G
CENTER_NAME    = EARTH
REF_FRAME      = TEME
TIME_SYSTEM    = UTC
MEAN_ELEMENT_THEORY = SGP/SGP4

EPOCH          = 2026-03-26T12:00:01.999296
MEAN_MOTION    = 16.06547070
ECCENTRICITY   = .0001205
INCLINATION    = 97.2824
RA_OF_ASC_NODE = 208.3987
ARG_OF_PERICENTER = 53.2466
MEAN_ANOMALY   = 29.5925

EPHEMERIS_TYPE = 0
CLASSIFICATION_TYPE = U
NORAD_CAT_ID   = 68300
ELEMENT_SET_NO = 999
REV_AT_EPOCH   = 191
BSTAR          = -.14138E-2
MEAN_MOTION_DOT = -.1050484E-1
MEAN_MOTION_DDOT = .38785E-3

CCSDS_OMM_VERS = 2.0
CREATION_DATE  = 
ORIGINATOR     = 

OBJECT_NAME    = STARLINK-37099
OBJECT_ID      = 2026-057H
CENTER_NAME    = EARTH
REF_FRAME      = TEME
TIME_SYSTEM    = UTC
MEAN_ELEMENT_THEORY = SGP/SGP4

EPOCH          = 2026-03-26T12:00:01.999296
MEAN_MOTION    = 16.06804788
ECCENTRICITY   = .0001278
INCLINATION    = 97.2822
RA_OF_ASC_NODE = 208.4005
ARG_OF_PERICENTER = 51.4427
MEAN_ANOMALY   = 34.6494

EPHEMERIS_TYPE = 0
CLASSIFICATION_TYPE = U
NORAD_CAT_ID   = 68301
ELEMENT_SET_NO = 999
REV_AT_EPOCH   = 174
BSTAR          = -.13862E-2
MEAN_MOTION_DOT = -.104656E-1
MEAN_MOTION_DDOT = .38641E-3

CCSDS_OMM_VERS = 2.0
CREATION_DATE  = 
ORIGINATOR     = 

OBJECT_NAME    = STARLINK-37007
OBJECT_ID      = 2026-057J
CENTER_NAME    = EARTH
REF_FRAME      = TEME
TIME_SYSTEM    = UTC
MEAN_ELEMENT_THEORY = SGP/SGP4

EPOCH          = 2026-03-26T12:00:01.999296
MEAN_MOTION    = 16.07105867
ECCENTRICITY   = .0001053
INCLINATION    = 97.2820
RA_OF_ASC_NODE = 208.4019
ARG_OF_PERICENTER = 55.3308
MEAN_ANOMALY   = 34.4845

EPHEMERIS_TYPE = 0
CLASSIFICATION_TYPE = U
NORAD_CAT_ID   = 68302
ELEMENT_SET_NO = 999
REV_AT_EPOCH   = 196
BSTAR          = -.13348E-2
MEAN_MOTION_DOT = -.1026909E-1
MEAN_MOTION_DDOT = .3745E-3

CCSDS_OMM_VERS = 2.0
CREATION_DATE  = 
ORIGINATOR     = 

OBJECT_NAME    = STARLINK-36300
OBJECT_ID      = 2026-057K
CENTER_NAME    = EARTH
REF_FRAME      = TEME
TIME_SYSTEM    = UTC
MEAN_ELEMENT_THEORY = SGP/SGP4

EPOCH          = 2026-03-26T12:00:01.999296
MEAN_MOTION    = 16.06968999
ECCENTRICITY   = .0001087
INCLINATION    = 97.2821
RA_OF_ASC_NODE = 208.4012
ARG_OF_PERICENTER = 59.2467
MEAN_ANOMALY   = 28.8557

EPHEMERIS_TYPE = 0
CLASSIFICATION_TYPE = U
NORAD_CAT_ID   = 68303
ELEMENT_SET_NO = 999
REV_AT_EPOCH   = 201
BSTAR          = -.13581E-2
MEAN_MOTION_DOT = -.1035878E-1
MEAN_MOTION_DDOT = .37992E-3

CCSDS_OMM_VERS = 2.0
CREATION_DATE  = 
ORIGINATOR     = 

OBJECT_NAME    = STARLINK-36849
OBJECT_ID      = 2026-057L
CENTER_NAME    = EARTH
REF_FRAME      = TEME
TIME_SYSTEM    = UTC
MEAN_ELEMENT_THEORY = SGP/SGP4

EPOCH          = 2026-03-26T12:00:01.999296
MEAN_MOTION    = 16.07219202
ECCENTRICITY   = .000122
INCLINATION    = 97.2820
RA_OF_ASC_NODE = 208.4024
ARG_OF_PERICENTER = 51.9397
MEAN_ANOMALY   = 39.2038

EPHEMERIS_TYPE = 0
CLASSIFICATION_TYPE = U
NORAD_CAT_ID   = 68304
ELEMENT_SET_NO = 999
REV_AT_EPOCH   = 191
BSTAR          = -.13458E-2
MEAN_MOTION_DOT = -.1042605E-1
MEAN_MOTION_DDOT = .38569E-3

CCSDS_OMM_VERS = 2.0
CREATION_DATE  = 
ORIGINATOR     = 

OBJECT_NAME    = STARLINK-36277
OBJECT_ID      = 2026-057M
CENTER_NAME    = EARTH
REF_FRAME      = TEME
TIME_SYSTEM    = UTC
MEAN_ELEMENT_THEORY = SGP/SGP4

EPOCH          = 2026-03-26T12:00:01.999296
MEAN_MOTION    = 16.07478645
ECCENTRICITY   = .0001128
INCLINATION    = 97.2818
RA_OF_ASC_NODE = 208.4036
ARG_OF_PERICENTER = 62.9172
MEAN_ANOMALY   = 31.3579

EPHEMERIS_TYPE = 0
CLASSIFICATION_TYPE = U
NORAD_CAT_ID   = 68305
ELEMENT_SET_NO = 999
REV_AT_EPOCH   = 207
BSTAR          = -.13391E-2
MEAN_MOTION_DOT = -.1054135E-1
MEAN_MOTION_DDOT = .39489E-3

